{"type": "FeatureCollection", "features": [ {"type": "Feature", "properties": {"norad_id": 41785, "name": "ALSAT 1B", "group": "resource", "lat": 40.262906670484426, "lon": 3.9163018344303153, "alt_km": 644.5683198713423, "timestamp": "2025-12-25T07:41:09.380399+00:00", "meta": {"OBJECT_NAME": "ALSAT 1B", "OBJECT_ID": "2016-059C", "EPOCH": "2025-12-24T23:20:42.811872", "MEAN_MOTION": 14.72087362, "ECCENTRICITY": 0.00107412, "INCLINATION": 97.7807, "RA_OF_ASC_NODE": 10.2338, "ARG_OF_PERICENTER": 69.1975, "MEAN_ANOMALY": 291.0382, "EPHEMERIS_TYPE": 0, "CLASSIFICATION_TYPE": "U", "NORAD_CAT_ID": 41785, "ELEMENT_SET_NO": 999, "REV_AT_EPOCH": 49494, "BSTAR": 6.0030793e-05, "MEAN_MOTION_DOT": 3.31e-06, "MEAN_MOTION_DDOT": 0}, "tle": {"line1": "1 41785U 16059C   25358.97271773  .00000331  00000+0  60031-4 0  9992", "line2": "2 41785  97.7807  10.2338 0010741  69.1975 291.0382 14.72087362494947"}}, "geometry": {"type": "Point", "coordinates": [3.9163018344303153, 40.262906670484426]}}, {"type": "Feature", "properties": {"norad_id": 41787, "name": "PATHFINDER 1", "group": "resource", "lat": -80.41824284610418, "lon": 127.07494990242182, "alt_km": 692.4832782044668, "timestamp": "2025-12-25T07:41:09.380410+00:00", "meta": {"OBJECT_NAME": "PATHFINDER 1", "OBJECT_ID": "2016-059E", "EPOCH": "2025-12-24T17:23:29.831712", "MEAN_MOTION": 14.67341271, "ECCENTRICITY": 0.00296241, "INCLINATION": 97.8138, "RA_OF_ASC_NODE": 0.9421, "ARG_OF_PERICENTER": 44.627, "MEAN_ANOMALY": 315.7313, "EPHEMERIS_TYPE": 0, "CLASSIFICATION_TYPE": "U", "NORAD_CAT_ID": 41787, "ELEMENT_SET_NO": 999, "REV_AT_EPOCH": 49412, "BSTAR": 0.00014621917, "MEAN_MOTION_DOT": 7.84e-06, "MEAN_MOTION_DDOT": 0}, "tle": {"line1": "1 41787U 16059E   25358.72465083  .00000784  00000+0  14622-3 0  9992", "line2": "2 41787  97.8138   0.9421 0029624  44.6270 315.7313 14.67341271494126"}}, "geometry": {"type": "Point", "coordinates": [127.07494990242182, -80.41824284610418]}}, {"type": "Feature", "properties": {"norad_id": 41790, "name": "SCATSAT 1", "group": "resource", "lat": 61.9124298790952, "lon": 40.580333740161, "alt_km": 590.6869796370956, "timestamp": "2025-12-25T07:41:09.380420+00:00", "meta": {"OBJECT_NAME": "SCATSAT 1", "OBJECT_ID": "2016-059H", "EPOCH": "2025-12-24T21:39:40.666464", "MEAN_MOTION": 14.78974547, "ECCENTRICITY": 0.00564661, "INCLINATION": 98.1447, "RA_OF_ASC_NODE": 55.7239, "ARG_OF_PERICENTER": 89.7014, "MEAN_ANOMALY": 271.0667, "EPHEMERIS_TYPE": 0, "CLASSIFICATION_TYPE": "U", "NORAD_CAT_ID": 41790, "ELEMENT_SET_NO": 999, "REV_AT_EPOCH": 7582, "BSTAR": 0.00020488361, "MEAN_MOTION_DOT": 1.497e-05, "MEAN_MOTION_DDOT": 0}, "tle": {"line1": "1 41790U 16059H   25358.90255401  .00001497  00000+0  20488-3 0  9996", "line2": "2 41790  98.1447  55.7239 0056466  89.7014 271.0667 14.78974547 75820"}}, "geometry": {"type": "Point", "coordinates": [40.580333740161, 61.9124298790952]}}, {"type": "Feature", "properties": {"norad_id": 41875, "name": "GOKTURK 1A", "group": "resource", "lat": 42.739466581097844, "lon": 79.12047349233255, "alt_km": 680.140626135927, "timestamp": "2025-12-25T07:41:09.380430+00:00", "meta": {"OBJECT_NAME": "GOKTURK 1A", "OBJECT_ID": "2016-073A", "EPOCH": "2025-12-24T22:51:18.548064", "MEAN_MOTION": 14.62794258, "ECCENTRICITY": 0.00012903, "INCLINATION": 98.1427, "RA_OF_ASC_NODE": 251.1549, "ARG_OF_PERICENTER": 81.2822, "MEAN_ANOMALY": 278.8526, "EPHEMERIS_TYPE": 0, "CLASSIFICATION_TYPE": "U", "NORAD_CAT_ID": 41875, "ELEMENT_SET_NO": 999, "REV_AT_EPOCH": 48335, "BSTAR": 0.00018394075, "MEAN_MOTION_DOT": 8.92e-06, "MEAN_MOTION_DDOT": 0}, "tle": {"line1": "1 41875U 16073A   25358.95229801  .00000892  00000+0  18394-3 0  9997", "line2": "2 41875  98.1427 251.1549 0001290  81.2822 278.8526 14.62794258483359"}}, "geometry": {"type": "Point", "coordinates": [79.12047349233255, 42.739466581097844]}}, {"type": "Feature", "properties": {"norad_id": 41877, "name": "RESOURCESAT-2A", "group": "resource", "lat": 55.48825582216477, "lon": -97.91774497596441, "alt_km": 814.3391917716299, "timestamp": "2025-12-25T07:41:09.380440+00:00", "meta": {"OBJECT_NAME": "RESOURCESAT-2A", "OBJECT_ID": "2016-074A", "EPOCH": "2025-12-24T22:39:40.304736", "MEAN_MOTION": 14.21604631, "ECCENTRICITY": 0.00016184, "INCLINATION": 98.7739, "RA_OF_ASC_NODE": 68.7284, "ARG_OF_PERICENTER": 201.2433, "MEAN_ANOMALY": 158.8677, "EPHEMERIS_TYPE": 0, "CLASSIFICATION_TYPE": "U", "NORAD_CAT_ID": 41877, "ELEMENT_SET_NO": 999, "REV_AT_EPOCH": 46954, "BSTAR": 4.1265521e-05, "MEAN_MOTION_DOT": 4.6e-07, "MEAN_MOTION_DDOT": 0}, "tle": {"line1": "1 41877U 16074A   25358.94421649  .00000046  00000+0  41266-4 0  9999", "line2": "2 41877  98.7739  68.7284 0001618 201.2433 158.8677 14.21604631469546"}}, "geometry": {"type": "Point", "coordinates": [-97.91774497596441, 55.48825582216477]}}, {"type": "Feature", "properties": {"norad_id": 41948, "name": "CARTOSAT-2D", "group": "resource", "lat": -45.41139368258973, "lon": -130.99036699789252, "alt_km": 516.2970254990942, "timestamp": "2025-12-25T07:41:09.380450+00:00", "meta": {"OBJECT_NAME": "CARTOSAT-2D", "OBJECT_ID": "2017-008A", "EPOCH": "2025-12-24T22:47:28.985856", "MEAN_MOTION": 15.19182905, "ECCENTRICITY": 0.0005453, "INCLINATION": 97.4371, "RA_OF_ASC_NODE": 56.2598, "ARG_OF_PERICENTER": 118.4674, "MEAN_ANOMALY": 241.7111, "EPHEMERIS_TYPE": 0, "CLASSIFICATION_TYPE": "U", "NORAD_CAT_ID": 41948, "ELEMENT_SET_NO": 999, "REV_AT_EPOCH": 49112, "BSTAR": 0.00019918667, "MEAN_MOTION_DOT": 4.123e-05, "MEAN_MOTION_DDOT": 0}, "tle": {"line1": "1 41948U 17008A   25358.94964104  .00004123  00000+0  19919-3 0  9993", "line2": "2 41948  97.4371  56.2598 0005453 118.4674 241.7111 15.19182905491127"}}, "geometry": {"type": "Point", "coordinates": [-130.99036699789252, -45.41139368258973]}}, {"type": "Feature", "properties": {"norad_id": 42063, "name": "SENTINEL-2B", "group": "resource", "lat": 30.95727363148498, "lon": -103.22126188262756, "alt_km": 786.8453118560319, "timestamp": "2025-12-25T07:41:09.380460+00:00", "meta": {"OBJECT_NAME": "SENTINEL-2B", "OBJECT_ID": "2017-013A", "EPOCH": "2025-12-24T22:36:08.656704", "MEAN_MOTION": 14.30814862, "ECCENTRICITY": 0.00011816, "INCLINATION": 98.57, "RA_OF_ASC_NODE": 71.2159, "ARG_OF_PERICENTER": 90.7367, "MEAN_ANOMALY": 269.3952, "EPHEMERIS_TYPE": 0, "CLASSIFICATION_TYPE": "U", "NORAD_CAT_ID": 42063, "ELEMENT_SET_NO": 999, "REV_AT_EPOCH": 45972, "BSTAR": 6.175192e-06, "MEAN_MOTION_DOT": -2.7e-07, "MEAN_MOTION_DDOT": 0}, "tle": {"line1": "1 42063U 17013A   25358.94176686 -.00000027  00000+0  61752-5 0  9992", "line2": "2 42063  98.5700  71.2159 0001181  90.7367 269.3952 14.30814862459724"}}, "geometry": {"type": "Point", "coordinates": [-103.22126188262756, 30.95727363148498]}}, {"type": "Feature", "properties": {"norad_id": 42767, "name": "CARTOSAT-2E", "group": "resource", "lat": 44.43357430401353, "lon": -115.88406306452677, "alt_km": 503.16387594461594, "timestamp": "2025-12-25T07:41:09.380470+00:00", "meta": {"OBJECT_NAME": "CARTOSAT-2E", "OBJECT_ID": "2017-036C", "EPOCH": "2025-12-25T00:46:13.498752", "MEAN_MOTION": 15.19192045, "ECCENTRICITY": 0.0002613, "INCLINATION": 97.4535, "RA_OF_ASC_NODE": 56.4571, "ARG_OF_PERICENTER": 175.1056, "MEAN_ANOMALY": 185.0204, "EPHEMERIS_TYPE": 0, "CLASSIFICATION_TYPE": "U", "NORAD_CAT_ID": 42767, "ELEMENT_SET_NO": 999, "REV_AT_EPOCH": 47170, "BSTAR": 0.00016621, "MEAN_MOTION_DOT": 3.429e-05, "MEAN_MOTION_DDOT": 0}, "tle": {"line1": "1 42767U 17036C   25359.03210068  .00003429  00000+0  16621-3 0  9993", "line2": "2 42767  97.4535  56.4571 0002613 175.1056 185.0204 15.19192045471702"}}, "geometry": {"type": "Point", "coordinates": [-115.88406306452677, 44.43357430401353]}}, {"type": "Feature", "properties": {"norad_id": 42920, "name": "FORMOSAT-5", "group": "resource", "lat": -24.00217835227388, "lon": 77.08692726158188, "alt_km": 727.0963931622082, "timestamp": "2025-12-25T07:41:09.380480+00:00", "meta": {"OBJECT_NAME": "FORMOSAT-5", "OBJECT_ID": "2017-049A", "EPOCH": "2025-12-24T20:12:38.392992", "MEAN_MOTION": 14.50767344, "ECCENTRICITY": 0.00098334, "INCLINATION": 98.2438, "RA_OF_ASC_NODE": 72.9173, "ARG_OF_PERICENTER": 260.0688, "MEAN_ANOMALY": 99.9397, "EPHEMERIS_TYPE": 0, "CLASSIFICATION_TYPE": "U", "NORAD_CAT_ID": 42920, "ELEMENT_SET_NO": 999, "REV_AT_EPOCH": 44139, "BSTAR": 7.1255107e-05, "MEAN_MOTION_DOT": 2.37e-06, "MEAN_MOTION_DDOT": 0}, "tle": {"line1": "1 42920U 17049A   25358.84211103  .00000237  00000+0  71255-4 0  9996", "line2": "2 42920  98.2438  72.9173 0009833 260.0688  99.9397 14.50767344441393"}}, "geometry": {"type": "Point", "coordinates": [77.08692726158188, -24.00217835227388]}}, {"type": "Feature", "properties": {"norad_id": 42969, "name": "SENTINEL-5P", "group": "resource", "lat": 34.83917582473875, "lon": -68.38178296641622, "alt_km": 824.1710720885676, "timestamp": "2025-12-25T07:41:09.380491+00:00", "meta": {"OBJECT_NAME": "SENTINEL-5P", "OBJECT_ID": "2017-064A", "EPOCH": "2025-12-24T19:40:42.589632", "MEAN_MOTION": 14.19520402, "ECCENTRICITY": 0.0001055, "INCLINATION": 98.7802, "RA_OF_ASC_NODE": 297.2978, "ARG_OF_PERICENTER": 90.9403, "MEAN_ANOMALY": 269.1894, "EPHEMERIS_TYPE": 0, "CLASSIFICATION_TYPE": "U", "NORAD_CAT_ID": 42969, "ELEMENT_SET_NO": 999, "REV_AT_EPOCH": 42482, "BSTAR": 6.0570831e-05, "MEAN_MOTION_DOT": 8.3e-07, "MEAN_MOTION_DDOT": 0}, "tle": {"line1": "1 42969U 17064A   25358.81993738  .00000083  00000+0  60571-4 0  9992", "line2": "2 42969  98.7802 297.2978 0001055  90.9403 269.1894 14.19520402424823"}}, "geometry": {"type": "Point", "coordinates": [-68.38178296641622, 34.83917582473875]}}]}